{"spkid": "50071785", "covariance": {"elements": [{"label": "e", "units": null, "title": "eccentricity", "value": ".3640586693706936", "sigma": 3.82970914295182e-08, "name": "e"}, {"label": "q", "value": ".855592306015354", "title": "perihelion distance", "units": "au", "name": "q", "sigma": 5.152174594433e-08}, {"label": "tp", "title": "time of perihelion passage", "value": "2456600.395226610292", "units": "TDB", "name": "tp", "sigma": 2.95590748280816e-05}, {"sigma": 1.10997535220254e-05, "name": "om", "title": "longitude of the ascending node", "value": "175.5789771837626", "units": "deg", "label": "node"}, {"units": "deg", "title": "argument of perihelion", "value": "70.47845438700791", "name": "w", "sigma": 1.62204133804133e-05, "label": "peri"}, {"sigma": 6.52016928965247e-06, "name": "i", "title": "inclination", "value": "4.71168365220981", "units": "deg", "label": "i"}], "data": [["1.466667211960877E-15", "-1.973026226862149E-15", "7.637614138296932E-13", "-1.901181623257552E-13", "5.189694821043736E-13", "-9.343918495806668E-14", "-4.542433957151035E-22"], ["-1.973026226862149E-15", "2.654490305152084E-15", "-1.025836835189888E-12", "2.551606267627847E-13", "-6.976000497439935E-13", "1.252934916503817E-13", "6.115846950801822E-22"], ["7.637614138296932E-13", "-1.025836835189888E-12", "8.737389046921271E-10", "-1.389327612225088E-10", "2.822919716700174E-10", "-7.712983270770378E-11", "-5.813663367037938E-19"], ["-1.901181623257552E-13", "2.551606267627847E-13", "-1.389327612225088E-10", "1.232045282497159E-10", "-1.5451504733433E-10", "7.030015286652646E-11", "9.189685829888466E-20"], ["5.189694821043736E-13", "-6.976000497439935E-13", "2.822919716700174E-10", "-1.5451504733433E-10", "2.631018102314921E-10", "-8.568957822344429E-11", "-1.724422151041138E-19"], ["-9.343918495806668E-14", "1.252934916503817E-13", "-7.712983270770378E-11", "7.030015286652646E-11", "-8.568957822344429E-11", "4.251260756572725E-11", "5.155811881917898E-20"], ["-4.542433957151035E-22", "6.115846950801822E-22", "-5.813663367037938E-19", "9.189685829888466E-20", "-1.724422151041138E-19", "5.155811881917898E-20", "4.010719625830217E-28"]], "labels": ["e", "q", "tp", "node", "peri", "i", "A2"], "epoch": "2456586.5"}, "elements": [{"name": "e", "sigma": "3.7907E-8", "units": null, "title": "eccentricity", "value": ".3639389259861158", "label": "e"}, {"label": "a", "name": "a", "sigma": "1.1072E-8", "units": "au", "title": "semi-major axis", "value": "1.345325835244177"}, {"units": "au", "value": ".8557093956640371", "title": "perihelion distance", "name": "q", "sigma": "5.5258E-8", "label": "q"}, {"name": "i", "sigma": "6.517E-6", "units": "deg", "title": "inclination; angle with respect to x-y ecliptic plane", "value": "4.712318408997012", "label": "i"}, {"label": "node", "units": "deg", "title": "longitude of the ascending node", "value": "175.460646024651", "sigma": "1.1119E-5", "name": "om"}, {"label": "peri", "sigma": "1.626E-5", "name": "w", "units": "deg", "title": "argument of perihelion", "value": "70.63506401042555"}, {"name": "ma", "sigma": "6.0148E-6", "title": "mean anomaly", "value": "25.07010783023616", "units": "deg", "label": "M"}, {"sigma": "9.4564E-6", "name": "tp", "units": "TDB", "title": "time of perihelion passage", "value": "2461160.808880221054", "label": "tp"}, {"label": "period", "units": "d", "value": "569.9537958583188", "title": "sidereal orbital period", "sigma": "7.0361E-6", "name": "per"}, {"title": "mean motion", "value": ".6316301472435322", "units": "deg/d", "name": "n", "sigma": "7.7975E-9", "label": "n"}, {"title": "aphelion distance", "value": "1.834942274824317", "units": "au", "sigma": "1.5102E-8", "name": "ad", "label": "Q"}], "epoch": "2461200.5"}